title,totalScore,reviewsCount,street,city,state,countryCode,website,phone,categoryName,url,place_id
Tongue Tip Lanzhou Beef Noodle 舌尖尖 (Downtown East),4.7,308,1 Pasir Ris Close E!Avenue@Downtown East #02-322,Singapore,,SG,https://www.facebook.com/Tonguetipbeefnoodles/,+65 9780 8123,Halal restaurant,https://www.google.com/maps/search/?api=1&query=Tongue%20Tip%20Lanzhou%20Beef%20Noodle%20%E8%88%8C%E5%B0%96%E5%B0%96%20(Downtown%20East)&query_place_id=ChIJ3YGBcSI92jER3UaKr6eQCjI,ChIJ3YGBcSI92jER3UaKr6eQCjI
Lemongrass,4.4,1078,"476 Upper Serangoon View, #02-06",Singapore,,SG,https://qashiereats.com/Lemongrass,+65 8068 6965,Thai restaurant,https://www.google.com/maps/search/?api=1&query=Lemongrass&query_place_id=ChIJ6bdDIk0X2jERzZHtC7S6ceE,ChIJ6bdDIk0X2jERzZHtC7S6ceE
Lau Wang Claypot Delights @ Punggol Oasis Terraces,4.6,1518,"681 Punggol Dr., #01-15",Singapore,,SG,https://www.lauwangclaypot.com/,,Restaurant,https://www.google.com/maps/search/?api=1&query=Lau%20Wang%20Claypot%20Delights%20%40%20Punggol%20Oasis%20Terraces&query_place_id=ChIJY5b4lRgV2jERkw16w9mMBQ4,ChIJY5b4lRgV2jERkw16w9mMBQ4
Sanook Kitchen (Waterway Point),4.6,925,"83 Punggol Central, #B1-13 Waterway Point West Wing",Singapore,,SG,https://sanookkitchen.com.sg/,+65 6231 1597,Thai restaurant,https://www.google.com/maps/search/?api=1&query=Sanook%20Kitchen%20(Waterway%20Point)&query_place_id=ChIJJQep-owV2jERrkjXxwYWNJU,ChIJJQep-owV2jERrkjXxwYWNJU
Ajumma's (Waterway Point),4.8,3451,"02-26 West Wing Waterway, Punggol Central, Point83",Singapore,,SG,http://www.ajummassg.com/,+65 8749 7993,Korean restaurant,https://www.google.com/maps/search/?api=1&query=Ajumma's%20(Waterway%20Point)&query_place_id=ChIJ0y_h3jsV2jER0X7-hrLJll8,ChIJ0y_h3jsV2jER0X7-hrLJll8
辣不辣 Labula Mala Sichuan Restaurant @ Oasis Terrace,4.6,1236,"681 Punggol Dr., #01-07",Singapore,,SG,https://www.labula.sg/labula-store-location/,+65 8870 6606,Chinese restaurant,https://www.google.com/maps/search/?api=1&query=%E8%BE%A3%E4%B8%8D%E8%BE%A3%20Labula%20Mala%20Sichuan%20Restaurant%20%40%20Oasis%20Terrace&query_place_id=ChIJkSFt868V2jERvdiIQsspXoM,ChIJkSFt868V2jERvdiIQsspXoM
Takagi Ramen - E!Avenue@Downtown East,4.4,1345,"1 Pasir Ris Close, #02-316, E!Avenue@Downtown East",Singapore,,SG,https://takagiramen.com/,+65 9170 7870,Ramen restaurant,https://www.google.com/maps/search/?api=1&query=Takagi%20Ramen%20-%20E!Avenue%40Downtown%20East&query_place_id=ChIJ8ZWWuG492jERccIy0SHR9hc,ChIJ8ZWWuG492jERccIy0SHR9hc
White Restaurant (Waterway Point),4.4,2673,"83 Punggol Central, B1-12 Waterway Point West Wing",Singapore,,SG,https://whiterestaurant.com.sg/,+65 8073 6693,Chinese restaurant,https://www.google.com/maps/search/?api=1&query=White%20Restaurant%20(Waterway%20Point)&query_place_id=ChIJE8vfxYoV2jERyXYCN80Q6lk,ChIJE8vfxYoV2jERyXYCN80Q6lk
The Punggol Settlement,4.2,4028,500 New Punggol Rd,Singapore,,SG,http://www.punggolsettlement.com/,+65 6702 6383,Seafood restaurant,https://www.google.com/maps/search/?api=1&query=The%20Punggol%20Settlement&query_place_id=ChIJV8fL1fQV2jERLHmEh5JwNlg,ChIJV8fL1fQV2jERLHmEh5JwNlg
Rasa Istimewa @ Pasir Ris,4.3,792,201 Pasir Ris Rd,Singapore,,SG,https://www.rasaistimewa.sg/,+65 6386 9339,Restaurant,https://www.google.com/maps/search/?api=1&query=Rasa%20Istimewa%20%40%20Pasir%20Ris&query_place_id=ChIJcwkC8Co92jERxiPJ0rflF9c,ChIJcwkC8Co92jERxiPJ0rflF9c
HAEDEUM CHARCOAL BBQ,4.4,827,"1 Pasir Ris Cl, 303 E!hub, #01-302",Singapore,,SG,,+65 9732 4633,Korean barbecue restaurant,https://www.google.com/maps/search/?api=1&query=HAEDEUM%20CHARCOAL%20BBQ&query_place_id=ChIJix3npEI92jERcbHJQcxoy5I,ChIJix3npEI92jERcbHJQcxoy5I
Jacob's Cafe,4.5,465,"5 Changi Village Rd, #01-2049",Singapore,,SG,https://www.jacobscafe.com.sg/,+65 6542 7500,Cafe,https://www.google.com/maps/search/?api=1&query=Jacob's%20Cafe&query_place_id=ChIJ2aQnVRY82jERUyIeg6PS-Z4,ChIJ2aQnVRY82jERUyIeg6PS-Z4
Rise & Grind Coffee Co.,4.4,1862,"681 Punggol Dr., #01-06 Oasis Terraces",Singapore,,SG,http://www.riseandgrind.co/,+65 8896 2020,Restaurant,https://www.google.com/maps/search/?api=1&query=Rise%20%26%20Grind%20Coffee%20Co.&query_place_id=ChIJeUa2RlYV2jERnmiXr4IBYLw,ChIJeUa2RlYV2jERnmiXr4IBYLw
Genki Sushi Waterway Point,4.6,5261,"83 Punggol Central, #02-23 Waterway Point West Wing",Singapore,,SG,https://www.genkisushi.com.sg/,+65 6957 2728,Sushi restaurant,https://www.google.com/maps/search/?api=1&query=Genki%20Sushi%20Waterway%20Point&query_place_id=ChIJdzpqpeQV2jERbtKTQkJFFIE,ChIJdzpqpeQV2jERbtKTQkJFFIE
House Of Seafood 螃蟹之家,4.3,3677,"500 New Punggol Rd, #01-01/02 The Punggol Settlement",Singapore,,SG,https://www.houseofseafood.com.sg/,+65 6466 9000,Seafood restaurant,https://www.google.com/maps/search/?api=1&query=House%20Of%20Seafood%20%E8%9E%83%E8%9F%B9%E4%B9%8B%E5%AE%B6&query_place_id=ChIJMz792-oV2jERfnhUlbQyDRE,ChIJMz792-oV2jERfnhUlbQyDRE
Maruhachi - Donburi & Curry,4.5,709,671 Edgefield Plains,Singapore,,SG,https://www.facebook.com/Maruhachi2020/,+65 9176 5750,Japanese restaurant,https://www.google.com/maps/search/?api=1&query=Maruhachi%20-%20Donburi%20%26%20Curry&query_place_id=ChIJMUqG7o4V2jER1fqj-NdSodI,ChIJMUqG7o4V2jER1fqj-NdSodI
Ciclo e Caffè (Changi Village),4.9,177,"1 Changi Village Rd, #01-2052",Singapore,,SG,http://www.ciclo-e-caffe.com/,+65 6208 8999,Cafe,https://www.google.com/maps/search/?api=1&query=Ciclo%20e%20Caff%C3%A8%20(Changi%20Village)&query_place_id=ChIJk9o2T_I92jER8PI7BDdLI3g,ChIJk9o2T_I92jER8PI7BDdLI3g
"Courtyard Cafe, Changi Beach Club",4.5,689,"2 Andover Rd, Changi Beach Club",Singapore,,SG,https://m.facebook.com/CourtyardCafeAndLounge/,+65 9154 7619,Cafe,https://www.google.com/maps/search/?api=1&query=Courtyard%20Cafe%2C%20Changi%20Beach%20Club&query_place_id=ChIJiRgBUacZ2jERM114OANrnV4,ChIJiRgBUacZ2jERM114OANrnV4
Anna's,4.2,1123,"681 Punggol Dr., #01-04 Oasis Terraces",Singapore,,SG,https://betterforme.shop/annas/,+65 6966 7503,Cafe,https://www.google.com/maps/search/?api=1&query=Anna's&query_place_id=ChIJEzhoAw0V2jERO8PSynsw4_w,ChIJEzhoAw0V2jERO8PSynsw4_w
Whisk & Paddle,4.0,3074,10 Tebing Ln,Singapore,,SG,http://www.whiskandpaddle.com.sg/,+65 6242 4617,Cafe,https://www.google.com/maps/search/?api=1&query=Whisk%20%26%20Paddle&query_place_id=ChIJ7aoYFPg92jER2jM2zMAKjrY,ChIJ7aoYFPg92jER2jM2zMAKjrY
Eutopia Cafe | Acai Forest,4.7,91,"625 Elias Rd, #01-K8",Singapore,,SG,,,Cafe,https://www.google.com/maps/search/?api=1&query=Eutopia%20Cafe%20%7C%20Acai%20Forest&query_place_id=ChIJR8azF6g92jER-kA4NUUJyJU,ChIJR8azF6g92jER-kA4NUUJyJU
White Cloud Cafe,4.5,291,"88 Punggol Wy, #02-126 Punggol Coast Mall",Singapore,,SG,,+65 9782 0388,Cafe,https://www.google.com/maps/search/?api=1&query=White%20Cloud%20Cafe&query_place_id=ChIJ3_nNeAAV2jERpbsobXEKMdY,ChIJ3_nNeAAV2jERpbsobXEKMdY
Richton Cafe Pte Ltd,4.0,264,"476A Pasir Ris Drive 6, #01-600",Singapore,,SG,,+65 9388 9150,Cafe,https://www.google.com/maps/search/?api=1&query=Richton%20Cafe%20Pte%20Ltd&query_place_id=ChIJD1KpUbI92jERpMk8Lxdlo_4,ChIJD1KpUbI92jERpMk8Lxdlo_4
Sweet Reservations Rivervale Plaza,4.7,187,"118 Rivervale Drive, #01-K20, K21 Rivervale Plaza",Singapore,,SG,,+65 8699 9707,Cafe,https://www.google.com/maps/search/?api=1&query=Sweet%20Reservations%20Rivervale%20Plaza&query_place_id=ChIJYQ0Qy_gX2jERgHlpphwbQnA,ChIJYQ0Qy_gX2jERgHlpphwbQnA
Artease Cafe - Punggol Regional Library,3.5,127,"1 Punggol Dr., #02-45 Punggol Regional Library",Singapore,,SG,https://www.artease.sg/,,Cafe,https://www.google.com/maps/search/?api=1&query=Artease%20Cafe%20-%20Punggol%20Regional%20Library&query_place_id=ChIJL_NXS9sV2jERFRHWEMYrL-0,ChIJL_NXS9sV2jERFRHWEMYrL-0
Into The Woods Cafe,4.3,296,26 Jln Kelulut,Singapore,,SG,https://www.facebook.com/p/i2-The-Woods-Cafe-100023430863884/,+65 6996 7601,Cafe,https://www.google.com/maps/search/?api=1&query=Into%20The%20Woods%20Cafe&query_place_id=ChIJ89Dk7akX2jERmOVdAhU0JcY,ChIJ89Dk7akX2jERmOVdAhU0JcY
Mamana Kitchen,4.6,67,"231A Sumang Ln, #01-04",Singapore,,SG,http://mamanakitchen.com/,+65 9725 9774,Cafe,https://www.google.com/maps/search/?api=1&query=Mamana%20Kitchen&query_place_id=ChIJRUmSL-UV2jERuAODGyJrE-w,ChIJRUmSL-UV2jERuAODGyJrE-w
The Apricus Coffee & Food Co.,4.1,565,248 Jln Kayu,Singapore,,SG,https://www.instagram.com/theapricuscafe/,+65 6904 1175,Cafe,https://www.google.com/maps/search/?api=1&query=The%20Apricus%20Coffee%20%26%20Food%20Co.&query_place_id=ChIJz3jwOtQX2jERR51lZ8T87Tc,ChIJz3jwOtQX2jERR51lZ8T87Tc
Yi Jia Bakery & Cafe,4.1,49,"401 Hougang Ave 10, #01-1164",Singapore,,SG,,+65 6280 3394,Cafe,https://www.google.com/maps/search/?api=1&query=Yi%20Jia%20Bakery%20%26%20Cafe&query_place_id=ChIJrVvehzkW2jERwhxSEfSoSF0,ChIJrVvehzkW2jERwhxSEfSoSF0
SOD Cafe,4.3,738,"51 Hougang Ave 9, #01-03 Community Club, Ci Yuan Community Centre",Singapore,,SG,https://www.sodcafe.com.sg/,+65 8128 3506,Cafe,https://www.google.com/maps/search/?api=1&query=SOD%20Cafe&query_place_id=ChIJpWI3pEUW2jERLtdlixr3ll8,ChIJpWI3pEUW2jERLtdlixr3ll8
YC Dining & Bar | Western Restaurant Bar,4.8,1324,"2 Venture Dr, #01-45",Singapore,,SG,https://www.ycdiningandbar.info/,+65 6980 5432,Western restaurant,https://www.google.com/maps/search/?api=1&query=YC%20Dining%20%26%20Bar%20%7C%20Western%20Restaurant%20Bar&query_place_id=ChIJ487Dp2oR2jERTV1zM0iJNYo,ChIJ487Dp2oR2jERTV1zM0iJNYo
Lazy Lizard - NEWest,4.7,889,"1 West Coast Drive #01-85 & #01-86, NEWest",Singapore,,SG,https://lazylizard.com.sg/,+65 6254 7326,Restaurant,https://www.google.com/maps/search/?api=1&query=Lazy%20Lizard%20-%20NEWest&query_place_id=ChIJpaXv6kIb2jERaR2t1KW20sk,ChIJpaXv6kIb2jERaR2t1KW20sk
Legendary Hong Kong Restaurant @ Jurong Point 香港傳奇餐廳,4.4,3438,"63 Jurong West Central 3, #03-80",Singapore,,SG,http://www.lhk.com.sg/,,Hong Kong style fast food restaurant,https://www.google.com/maps/search/?api=1&query=Legendary%20Hong%20Kong%20Restaurant%20%40%20Jurong%20Point%20%E9%A6%99%E6%B8%AF%E5%82%B3%E5%A5%87%E9%A4%90%E5%BB%B3&query_place_id=ChIJHcaYLpMP2jERjhDMRZ9A7-k,ChIJHcaYLpMP2jERjhDMRZ9A7-k
Mariners' Corner Restaurant,4.3,1122,"106 Clementi Street 12, #01-40",Singapore,,SG,https://www.facebook.com/pages/category/Family-Style-Restaurant/Mariners-Corner-Restaurant-164932550195771/,+65 6224 9928,Restaurant,https://www.google.com/maps/search/?api=1&query=Mariners'%20Corner%20Restaurant&query_place_id=ChIJbfDuOGwZ2jER0mtQ4rwdx7Q,ChIJbfDuOGwZ2jER0mtQ4rwdx7Q
The Frontier Community Club,4.2,473,"60 Jurong West Central 3, #01-01 The Frontier Community Place",Singapore,,SG,,+65 6795 8229,Community center,https://www.google.com/maps/search/?api=1&query=The%20Frontier%20Community%20Club&query_place_id=ChIJd4ldQJMP2jERlQdLPkzVa4A,ChIJd4ldQJMP2jERlQdLPkzVa4A
Jurong Green Community Club,4.1,968,6 Jurong West Ave 1,Singapore,,SG,,+65 6567 1374,Community center,https://www.google.com/maps/search/?api=1&query=Jurong%20Green%20Community%20Club&query_place_id=ChIJl3OX0d4P2jERfrhbQVC52gI,ChIJl3OX0d4P2jERfrhbQVC52gI
Jurong Spring Community Club,4.1,492,8 Jurong West Street 52,Singapore,,SG,,+65 6562 4066,Community center,https://www.google.com/maps/search/?api=1&query=Jurong%20Spring%20Community%20Club&query_place_id=ChIJ7zhb19wP2jERictRTHw9CFo,ChIJ7zhb19wP2jERictRTHw9CFo
Clementi Community Centre,4.2,902,220 Clementi Ave 4,Singapore,,SG,,+65 6776 1670,Community center,https://www.google.com/maps/search/?api=1&query=Clementi%20Community%20Centre&query_place_id=ChIJq6qq2oUa2jERdIXhE3knPCM,ChIJq6qq2oUa2jERdIXhE3knPCM
Senja-Cashew Community Club,4.3,1238,101 Bukit Panjang Rd,Singapore,,SG,https://www.onepa.gov.sg/cc/senja-cashew-cc,+65 6219 4561,Community center,https://www.google.com/maps/search/?api=1&query=Senja-Cashew%20Community%20Club&query_place_id=ChIJs45bbr0R2jERwByR91EdWqw,ChIJs45bbr0R2jERwByR91EdWqw
ACE The Place Community Club,4.2,713,120 Woodlands Ave 1,Singapore,,SG,https://www.onepa.gov.sg/cc/ace-the-place-cc,+65 6891 3430,Community center,https://www.google.com/maps/search/?api=1&query=ACE%20The%20Place%20Community%20Club&query_place_id=ChIJzb2egbsT2jERcq5yvbCJ7yY,ChIJzb2egbsT2jERcq5yvbCJ7yY
Woodlands Galaxy Community Club,4.3,987,31 Woodlands Ave 6,Singapore,,SG,,+65 6366 2218,Community center,https://www.google.com/maps/search/?api=1&query=Woodlands%20Galaxy%20Community%20Club&query_place_id=ChIJH8K10p8T2jERZ1EVYVpGL8c,ChIJH8K10p8T2jERZ1EVYVpGL8c
Ci Yuan Community Club,4.2,3382,51 Hougang Ave 9,Singapore,,SG,,+65 6386 3717,Community center,https://www.google.com/maps/search/?api=1&query=Ci%20Yuan%20Community%20Club&query_place_id=ChIJWzXCpUUW2jERt2u2OJN48A8,ChIJWzXCpUUW2jERt2u2OJN48A8
Canberra Community Club,4.1,1045,"2 Sembawang Cres, #01-01",Singapore,,SG,,+65 6755 6369,Community center,https://www.google.com/maps/search/?api=1&query=Canberra%20Community%20Club&query_place_id=ChIJFwBnxn0T2jERFDDiOhsMo_U,ChIJFwBnxn0T2jERFDDiOhsMo_U
Kebun Baru Community Club,4.3,797,216 Ang Mo Kio Ave 4,Singapore,,SG,https://www.onepa.gov.sg/cc/kebun-baru-cc,+65 6457 7379,Community center,https://www.google.com/maps/search/?api=1&query=Kebun%20Baru%20Community%20Club&query_place_id=ChIJq6qqmoIZ2jER48d5nbUw7hA,ChIJq6qqmoIZ2jER48d5nbUw7hA
Bukit Panjang Community Club,4.1,935,8 Pending Rd,Singapore,,SG,https://m.facebook.com/bukitpanjangcc/,+65 6506 0900,Community center,https://www.google.com/maps/search/?api=1&query=Bukit%20Panjang%20Community%20Club&query_place_id=ChIJJWt786YR2jERcIgIkdUxv_0,ChIJJWt786YR2jERcIgIkdUxv_0
Marsiling Community Club,4.1,575,100 Admiralty Rd,Singapore,,SG,,+65 6269 6768,Community center,https://www.google.com/maps/search/?api=1&query=Marsiling%20Community%20Club&query_place_id=ChIJq6qquv8S2jERFxNiPdcRSiY,ChIJq6qquv8S2jERFxNiPdcRSiY
Keat Hong Community Club,4.2,1100,"2 Choa Chu Kang Loop, #01-01",Singapore,,SG,,+65 6769 4194,Community center,https://www.google.com/maps/search/?api=1&query=Keat%20Hong%20Community%20Club&query_place_id=ChIJVVVVVegR2jER_ncZsSw8hfM,ChIJVVVVVegR2jER_ncZsSw8hfM
Zhenghua Community Club,3.9,514,640A Senja Cl,Singapore,,SG,https://zhenghua.pa.gov.sg/,+65 6310 6702,Community center,https://www.google.com/maps/search/?api=1&query=Zhenghua%20Community%20Club&query_place_id=ChIJn3ut854R2jERfkj909V6YhA,ChIJn3ut854R2jERfkj909V6YhA
Fernvale Hawker Centre & Market,3.9,1059,"21 Sengkang W Ave, Fernvale Community Club",Singapore,,SG,https://www.nea.gov.sg/our-services/hawker-management/overview,+65 6225 5632,Community center,https://www.google.com/maps/search/?api=1&query=Fernvale%20Hawker%20Centre%20%26%20Market&query_place_id=ChIJq6pqKmUW2jER_M5aWJXKWjs,ChIJq6pqKmUW2jER_M5aWJXKWjs
Tuas South Minimart,4.1,198,"6, #01-102 Tuas South Street 15",Singapore,,SG,,+65 6264 5065,Grocery store,https://www.google.com/maps/search/?api=1&query=Tuas%20South%20Minimart&query_place_id=ChIJe-ZwN_wF2jER0KBwGkVwwHk,ChIJe-ZwN_wF2jER0KBwGkVwwHk
Octobox,4.9,189,"50 Nanyang Ave, Nanyang Technological University, 50 Nanyang Ave, Block N3.1 North Spine",Singapore,,SG,,,Convenience store,https://www.google.com/maps/search/?api=1&query=Octobox&query_place_id=ChIJ1ZD3MgAP2jERQvGVLFKfqVQ,ChIJ1ZD3MgAP2jERQvGVLFKfqVQ
Popular Supermarket Pte Ltd,4.3,153,"12 Tuas South Street 13, #01-18/19",Singapore,,SG,,+65 9036 0921,Supermarket,https://www.google.com/maps/search/?api=1&query=Popular%20Supermarket%20Pte%20Ltd&query_place_id=ChIJLfRqV6AG2jERjP1FABo-jd0,ChIJLfRqV6AG2jERjP1FABo-jd0
Star Supermart Pte Ltd,4.2,110,"15 Tech Park Cres, #01-02",Singapore,,SG,,+65 9036 0921,Supermarket,https://www.google.com/maps/search/?api=1&query=Star%20Supermart%20Pte%20Ltd&query_place_id=ChIJKT_1j6UH2jERkLci31GhzzY,ChIJKT_1j6UH2jERkLci31GhzzY
BS Supermarket,4.3,62,32 Tuas View Square,Singapore,,SG,,+65 9239 3995,Indian grocery store,https://www.google.com/maps/search/?api=1&query=BS%20Supermarket&query_place_id=ChIJaXaqRyQH2jERsidCj1nXpT4,ChIJaXaqRyQH2jERsidCj1nXpT4
Akka kadai,4.1,79,Tuas View Square,,,SG,,,Grocery store,https://www.google.com/maps/search/?api=1&query=Akka%20kadai&query_place_id=ChIJJejSdc0H2jERcYUkcT2h68E,ChIJJejSdc0H2jERcYUkcT2h68E
UNIQLO,4.2,143,"63 Jurong West Central 3, #03-17 JP2",Singapore,,SG,https://www.uniqlo.com/sg/en/,,Clothing store,https://www.google.com/maps/search/?api=1&query=UNIQLO&query_place_id=ChIJxblKLZMP2jERAx_jhjWrz_U,ChIJxblKLZMP2jERAx_jhjWrz_U
Prime Supermarket,4.0,898,"962 Jurong West Street 91, #01-300",Singapore,,SG,http://www.primesupermarket.com/,+65 6791 8921,Supermarket,https://www.google.com/maps/search/?api=1&query=Prime%20Supermarket&query_place_id=ChIJhYB_Y5kP2jER2c0QSdbUyvA,ChIJhYB_Y5kP2jER2c0QSdbUyvA
Decathlon - Joo Koon,4.7,4250,"1 Joo Koon Cir, #02-21 Fair Price Hub",Singapore,,SG,https://www.decathlon.sg/s/sports-stores/joo-koon?utm_source=google-my-business&utm_medium=organic&utm_campaign=gmb,,Sporting goods store,https://www.google.com/maps/search/?api=1&query=Decathlon%20-%20Joo%20Koon&query_place_id=ChIJY18bnYAF2jERsAwTOQ0BnIs,ChIJY18bnYAF2jERsAwTOQ0BnIs
Suntec City,4.4,26749,3 Temasek Blvd,Singapore,,SG,https://sunteccity.com.sg/,,Shopping mall,https://www.google.com/maps/search/?api=1&query=Suntec%20City&query_place_id=ChIJ20X__K4Z2jERRE8GRs-d8HE,ChIJ20X__K4Z2jERRE8GRs-d8HE
City Square Mall,4.3,22299,180 Kitchener Rd,Singapore,,SG,http://www.citysquaremall.com.sg/,+65 6595 6595,Shopping mall,https://www.google.com/maps/search/?api=1&query=City%20Square%20Mall&query_place_id=ChIJZ1omp8gZ2jERgDUAb_hBKLY,ChIJZ1omp8gZ2jERgDUAb_hBKLY
Westgate,4.3,14585,3 Gateway Dr,Singapore,,SG,https://www.capitaland.com/sg/malls/westgate/en.html,+65 6908 3737,Shopping mall,https://www.google.com/maps/search/?api=1&query=Westgate&query_place_id=ChIJ82AoVA8Q2jERkHnr1RPW9B4,ChIJ82AoVA8Q2jERkHnr1RPW9B4
Paragon Shopping Centre,4.4,13836,290 Orchard Rd,Singapore,,SG,https://www.paragon.com.sg/,,Shopping mall,https://www.google.com/maps/search/?api=1&query=Paragon%20Shopping%20Centre&query_place_id=ChIJl_sOMpIZ2jERKgmuCf4FCs0,ChIJl_sOMpIZ2jERKgmuCf4FCs0
Boon Lay Shopping Centre,4.3,1570,221 Boon Lay Pl,Singapore,,SG,,,Shopping mall,https://www.google.com/maps/search/?api=1&query=Boon%20Lay%20Shopping%20Centre&query_place_id=ChIJjyf3EsIP2jER-6PJOuQZ2po,ChIJjyf3EsIP2jER-6PJOuQZ2po
313@somerset,4.4,16213,313 Orchard Rd,Singapore,,SG,http://www.313somerset.com.sg/,+65 6496 9313,Shopping mall,https://www.google.com/maps/search/?api=1&query=313%40somerset&query_place_id=ChIJHSrGJ5EZ2jERTzbUyme7KuQ,ChIJHSrGJ5EZ2jERTzbUyme7KuQ
Jem,4.3,17448,50 Jurong Gateway Rd,Singapore,,SG,http://www.jem.sg/,+65 6225 5536,Shopping mall,https://www.google.com/maps/search/?api=1&query=Jem&query_place_id=ChIJb20nHg8Q2jERuBnOGGnuq-s,ChIJb20nHg8Q2jERuBnOGGnuq-s
Genoco PC,5.0,489,"839 Jurong West Street 81, Unit 9-97",Singapore,,SG,http://www.genocopc.com/,+65 9272 9785,Computer store,https://www.google.com/maps/search/?api=1&query=Genoco%20PC&query_place_id=ChIJEXBcyAVlggwRqHQ0bKKVKrY,ChIJEXBcyAVlggwRqHQ0bKKVKrY
Cimelia Resource Recovery Pte Ltd (CIMELIA),5.0,174,99 Tuas Bay Dr,Singapore,,SG,https://cimeliaglobal.com/,+65 6898 0808,Recycling center,https://www.google.com/maps/search/?api=1&query=Cimelia%20Resource%20Recovery%20Pte%20Ltd%20(CIMELIA)&query_place_id=ChIJw8qdZ2Eb2jERuMHWUFwGA5U,ChIJw8qdZ2Eb2jERuMHWUFwGA5U
Shanjing Computer Shop,4.7,72,"Boon Lay Shopping centre, Boon Lay Pl, #01-158 Beside Swee heng Bakery, Blk 221",Singapore,,SG,,+65 9090 9822,Computer service,https://www.google.com/maps/search/?api=1&query=Shanjing%20Computer%20Shop&query_place_id=ChIJX_Cf0TAP2jEROooU9xXwqOA,ChIJX_Cf0TAP2jEROooU9xXwqOA
Protech (Jurong East),4.9,140,"133 Jurong Gateway Rd, #01-303",Singapore,,SG,https://www.tiktok.com/@protechsg,+65 8225 3068,Computer repair service,https://www.google.com/maps/search/?api=1&query=Protech%20(Jurong%20East)&query_place_id=ChIJu0jNWLUR2jERFTy5fSq1mxc,ChIJu0jNWLUR2jERFTy5fSq1mxc
CR GROUP Flagship Store,4.9,184,"1 Rochor Canal Rd, #03-88/89/90 Sim Lim Square",Singapore,,SG,https://crgroup.com.sg/,+65 6336 5598,Computer store,https://www.google.com/maps/search/?api=1&query=CR%20GROUP%20Flagship%20Store&query_place_id=ChIJr3o-0SYZ2jER-KNd2bFqxjg,ChIJr3o-0SYZ2jER-KNd2bFqxjg
JTC Space @ Tuas Biomedical Park,3.8,58,128 Tuas South Ave 3,Singapore,,SG,,+65 9388 0448,Business center,https://www.google.com/maps/search/?api=1&query=JTC%20Space%20%40%20Tuas%20Biomedical%20Park&query_place_id=ChIJX1ivmIcG2jERQFOFekQ5r78,ChIJX1ivmIcG2jERQFOFekQ5r78
Pioneer Medical Centre,2.6,88,"651 Jurong West Street 61, #01-06",Singapore,,SG,,+65 6790 7668,Medical clinic,https://www.google.com/maps/search/?api=1&query=Pioneer%20Medical%20Centre&query_place_id=ChIJVdDqLJAP2jEROmwBNd004iM,ChIJVdDqLJAP2jEROmwBNd004iM
Fullerton Health,4.0,1320,"36 Nanyang Ave, #01-01/02 Nanyang Technological University",Singapore,,SG,http://www.fullertonhealth.com/,+65 6793 6828,Medical clinic,https://www.google.com/maps/search/?api=1&query=Fullerton%20Health&query_place_id=ChIJqyjq5Z8P2jERRwB6YLBu2Ec,ChIJqyjq5Z8P2jERRwB6YLBu2Ec
One Medical Clinic,4.0,71,"Jurong West Ave 5, #01-K1 Block 728",Singapore,,SG,https://m.facebook.com/pages/One-Medical-Clinic/149088738566830,+65 6792 2143,Walk-in clinic,https://www.google.com/maps/search/?api=1&query=One%20Medical%20Clinic&query_place_id=ChIJv-X-h70P2jERSvip7DteVRA,ChIJv-X-h70P2jERSvip7DteVRA
Apex Medical Centre Pte Ltd,2.9,32,"960 Jurong West Street 92, #01-172",Singapore,,SG,,+65 6791 2292,Medical Center,https://www.google.com/maps/search/?api=1&query=Apex%20Medical%20Centre%20Pte%20Ltd&query_place_id=ChIJRz0LZJkP2jERN4tYjdD88WQ,ChIJRz0LZJkP2jERN4tYjdD88WQ
Healthway Medical (Jurong West),2.7,68,"Blk 960 Jurong West Street 92, #01-166",Singapore,,SG,https://healthwaymedical.com/clinics/jurong-west/?utm_source=GBP&utm_medium=website&utm_campaign=healthway-medical-jurong-west,+65 6791 5680,Medical Center,https://www.google.com/maps/search/?api=1&query=Healthway%20Medical%20(Jurong%20West)&query_place_id=ChIJJauQgJkP2jERioFCqnMfrIA,ChIJJauQgJkP2jERioFCqnMfrIA
Central 24-Hr Clinic (Jurong West / Pioneer North) - CHAS | GP Clinic | 24 小时 诊所,3.1,530,"959 Jurong West Street 92, #01-160",Singapore,,SG,https://www.centralclinic.com.sg/jurong-clinic-24-hour-clinic,+65 6251 2775,Medical Center,https://www.google.com/maps/search/?api=1&query=Central%2024-Hr%20Clinic%20(Jurong%20West%20%2F%20Pioneer%20North)%20-%20CHAS%20%7C%20GP%20Clinic%20%7C%2024%20%E5%B0%8F%E6%97%B6%20%E8%AF%8A%E6%89%80&query_place_id=ChIJIau6YpkP2jERy16nvniRhjE,ChIJIau6YpkP2jERy16nvniRhjE
Jin Gu Liao Chinese Medical Center Pte Ltd 金骨疗中医内外科诊疗厅 (TCM),4.8,56,"Blk 854 Jurong West Street 81, #01-502",Singapore,,SG,https://sitelift.site/jinguliaochinesemedicalcenterpteltdtcm/index.html,+65 9008 5300,Medical Center,https://www.google.com/maps/search/?api=1&query=Jin%20Gu%20Liao%20Chinese%20Medical%20Center%20Pte%20Ltd%20%E9%87%91%E9%AA%A8%E7%96%97%E4%B8%AD%E5%8C%BB%E5%86%85%E5%A4%96%E7%A7%91%E8%AF%8A%E7%96%97%E5%8E%85%20(TCM)&query_place_id=ChIJVXfJVHwP2jERMh2Yf_0WhsE,ChIJVXfJVHwP2jERMh2Yf_0WhsE
Pier Medical Centre,2.4,56,"725 Jurong West Ave 5, #01-164",Singapore,,SG,,+65 6791 5677,General practitioner,https://www.google.com/maps/search/?api=1&query=Pier%20Medical%20Centre&query_place_id=ChIJa_0_MJYP2jERjV9iwHSNC6k,ChIJa_0_MJYP2jERjV9iwHSNC6k
Meridian Medical Centre,4.8,74,"108 Depot Rd, #01-10 Depot Heights Shopping Centre",Singapore,,SG,https://meridianmedical.com.sg/,+65 6278 0088,Medical Center,https://www.google.com/maps/search/?api=1&query=Meridian%20Medical%20Centre&query_place_id=ChIJQVMlIdAb2jERYXL8z4Sb-dE,ChIJQVMlIdAb2jERYXL8z4Sb-dE
West Point Clinic,4.3,428,853 Jurong West Street 81,Singapore,,SG,,+65 6791 3330,Medical clinic,https://www.google.com/maps/search/?api=1&query=West%20Point%20Clinic&query_place_id=ChIJvZ2VvaIP2jERCSJ8JWbqu04,ChIJvZ2VvaIP2jERCSJ8JWbqu04
Soon Lee Medical Clinic,4.3,158,"3 Soon Lee St, #01-15 Pioneer Junction",Singapore,,SG,http://www.soonleemedical.com/,+65 6977 9670,Medical clinic,https://www.google.com/maps/search/?api=1&query=Soon%20Lee%20Medical%20Clinic&query_place_id=ChIJG3V4oEoP2jERnxIfFIN-gV4,ChIJG3V4oEoP2jERnxIfFIN-gV4
Healthmark Family Clinic,3.0,63,"638 Jurong West Street 61, #02-08",Singapore,,SG,http://healthmark.com.sg/,+65 6861 3100,Medical clinic,https://www.google.com/maps/search/?api=1&query=Healthmark%20Family%20Clinic&query_place_id=ChIJO6aM0JYP2jERF5E_4Tn06BE,ChIJO6aM0JYP2jERF5E_4Tn06BE
University Health Service,1.6,37,"36 Nanyang Ave, University Health Service Building",Singapore,,SG,,+65 6793 6974,Hospital,https://www.google.com/maps/search/?api=1&query=University%20Health%20Service&query_place_id=ChIJAVha4p8P2jERR6TzIugBwLE,ChIJAVha4p8P2jERR6TzIugBwLE
AcuMed Medical (Joo Koon),3.3,63,"1 Joo Koon Cir, #01-23 FairPrice Joo Koon",Singapore,,SG,,+65 6861 5755,Walk-in clinic,https://www.google.com/maps/search/?api=1&query=AcuMed%20Medical%20(Joo%20Koon)&query_place_id=ChIJ9e3t90sF2jERFcR33s3hrac,ChIJ9e3t90sF2jERFcR33s3hrac
Marina Bistro,4.4,730,10 Tuas West Dr,Singapore,,SG,https://www.rafflesmarina.com.sg/dining/group-1/marina-bistro.html,+65 6869 2299,Restaurant,https://www.google.com/maps/search/?api=1&query=Marina%20Bistro&query_place_id=ChIJO_0iuLQI2jERkcDiNJD7aIA,ChIJO_0iuLQI2jERkcDiNJD7aIA
Heng Heng Boneless Duck Rice,4.9,225,"47 Tuas South Ave 1, iEat Canteen",Singapore,,SG,,+65 9325 4844,Hawker stall,https://www.google.com/maps/search/?api=1&query=Heng%20Heng%20Boneless%20Duck%20Rice&query_place_id=ChIJi5uMBo0H2jERGsnIllgMnys,ChIJi5uMBo0H2jERGsnIllgMnys
Greenhouse Bistro,4.2,355,"30 Tuas Bay Dr, #01-00",Singapore,,SG,,+65 9822 0053,Restaurant,https://www.google.com/maps/search/?api=1&query=Greenhouse%20Bistro&query_place_id=ChIJ5UCkFuEH2jERbLSqUpAAb4c,ChIJ5UCkFuEH2jERbLSqUpAAb4c
Makkal Vilas,4.2,169,11 Tech Park Cres,Singapore,,SG,,+65 8245 5484,Indian restaurant,https://www.google.com/maps/search/?api=1&query=Makkal%20Vilas&query_place_id=ChIJoxHW9AAH2jERDulOcSOV3nY,ChIJoxHW9AAH2jERDulOcSOV3nY
Anytime Fitness D'Arena Jurong,4.9,192,"511 Upper Jurong Rd, #02-05 Anytime Fitness D'Arena",Singapore,,SG,https://www.anytimefitness.sg/gyms/sg-0114/d'arena-south-west-638366/,+65 8884 9730,Gym,https://www.google.com/maps/search/?api=1&query=Anytime%20Fitness%20D'Arena%20Jurong&query_place_id=ChIJsbnFq6wP2jEROSzyyxLMqPo,ChIJsbnFq6wP2jEROSzyyxLMqPo
Anytime Fitness,4.3,121,"60 Jurong West Street 91, #01-08",Singapore,,SG,https://www.anytimefitness.sg/,+65 9475 5480,Gym,https://www.google.com/maps/search/?api=1&query=Anytime%20Fitness&query_place_id=ChIJ1wA9lpkP2jERzqSzG_455VI,ChIJ1wA9lpkP2jERzqSzG_455VI
Anytime Fitness,4.7,215,"638 Jurong West Street 61, #03-01 Pioneer Mall",Singapore,,SG,https://www.anytimefitness.sg/gyms/sg-0095/pioneer-mall-south-west/,+65 8500 4500,Gym,https://www.google.com/maps/search/?api=1&query=Anytime%20Fitness&query_place_id=ChIJ08t6PjYP2jERi4sIp8Z1Sw0,ChIJ08t6PjYP2jERi4sIp8Z1Sw0
North Hill Gym,4.0,46,"60 Nanyang Cres, Blk 19A, #03-01",Singapore,,SG,,+65 6904 1253,Gym,https://www.google.com/maps/search/?api=1&query=North%20Hill%20Gym&query_place_id=ChIJLTMGc6YP2jERNR1ExsuI2DA,ChIJLTMGc6YP2jERNR1ExsuI2DA
Homeground Gym,4.7,35,"863 Jurong West Street 81, #01-515",Singapore,,SG,https://www.homegroundgym.com/jurong-west,+65 9630 6218,Gym,https://www.google.com/maps/search/?api=1&query=Homeground%20Gym&query_place_id=ChIJ_fddB8IP2jERvKTME-Sai3k,ChIJ_fddB8IP2jERvKTME-Sai3k
Anytime Fitness,4.5,250,"1 Jurong West Central 2, #03-24/25",Singapore,,SG,https://www.anytimefitness.sg/gyms/sg-0076/jurong-point-south-west/,+65 8886 2262,Gym,https://www.google.com/maps/search/?api=1&query=Anytime%20Fitness&query_place_id=ChIJAQAALJMP2jERo6xygnW-OAg,ChIJAQAALJMP2jERo6xygnW-OAg
BFT Pioneer,5.0,34,"511 Upper Jurong Rd, Block E-02-02A D'Arena",Singapore,,SG,https://www.bft.studio/Pioneer/trial/,+65 8876 7276,Gym,https://www.google.com/maps/search/?api=1&query=BFT%20Pioneer&query_place_id=ChIJ5VSH70MP2jERvFL2-9MAz2Q,ChIJ5VSH70MP2jERvFL2-9MAz2Q
Dennis Gym,4.8,69,1 Jurong West Ave 5,Singapore,,SG,http://www.dennisgym.net/,+65 8543 2903,Gym,https://www.google.com/maps/search/?api=1&query=Dennis%20Gym&query_place_id=ChIJ____-8YP2jERGcYiWnpw43k,ChIJ____-8YP2jERGcYiWnpw43k
Jurong West ActiveSG Sports Hall,4.4,222,"20 Jurong West Street 93, #02-18",Singapore,,SG,,,Sports complex,https://www.google.com/maps/search/?api=1&query=Jurong%20West%20ActiveSG%20Sports%20Hall&query_place_id=ChIJYeredpAP2jERduiD1Z5dTGI,ChIJYeredpAP2jERduiD1Z5dTGI
Anytime Fitness,4.3,84,"221 Boon Lay Pl, #03-106",Singapore,,SG,https://www.anytimefitness.sg/gyms/SG-0063/boon-lay-south-west/,+65 8399 7850,Gym,https://www.google.com/maps/search/?api=1&query=Anytime%20Fitness&query_place_id=ChIJB2a1tX8R2jERLWSYgXhxS8E,ChIJB2a1tX8R2jERLWSYgXhxS8E
F45 Jurong West,4.9,57,"7 Jurong West Ave 5, #02-05",Singapore,,SG,https://f45training.com/jurongwest,+65 8113 7871,Gym,https://www.google.com/maps/search/?api=1&query=F45%20Jurong%20West&query_place_id=ChIJ8aJ9Pw0P2jEREaGfNGV8ujE,ChIJ8aJ9Pw0P2jEREaGfNGV8ujE
JING RAN RESTAURANT 第二家园餐馆,4.6,51,"511 Upper Jurong Rd, B-01-01 Arena Country Club",Singapore,,SG,,+65 6513 8187,Restaurant,https://www.google.com/maps/search/?api=1&query=JING%20RAN%20RESTAURANT%20%E7%AC%AC%E4%BA%8C%E5%AE%B6%E5%9B%AD%E9%A4%90%E9%A6%86&query_place_id=ChIJuwj3ZAAP2jERv5RH9QjS_YQ,ChIJuwj3ZAAP2jERv5RH9QjS_YQ
Hahahotpot D'Arena,4.6,328,"511, Block B Upper Jurong Rd, #01-09/10",Singapore,,SG,http://hahahotpot.com/,+65 9731 9616,Restaurant,https://www.google.com/maps/search/?api=1&query=Hahahotpot%20D'Arena&query_place_id=ChIJR7kZRvUP2jER5WSA9lbb-oM,ChIJR7kZRvUP2jER5WSA9lbb-oM
Kokoro Izakaya,4.3,123,"1 Joo Koon Cir, #01-51 FairPrice Joo Koon",Singapore,,SG,,+65 8758 7024,Japanese restaurant,https://www.google.com/maps/search/?api=1&query=Kokoro%20Izakaya&query_place_id=ChIJJ12oOwAF2jER1c9sOEh17uE,ChIJJ12oOwAF2jER1c9sOEh17uE
The Crowded Bowl,4.1,60,"76 Nanyang Dr, NS3-1-18 West Singapore, North Spine Plaza",Singapore,,SG,,,Restaurant,https://www.google.com/maps/search/?api=1&query=The%20Crowded%20Bowl&query_place_id=ChIJOeo7rRYP2jERfaGpD0hs2vE,ChIJOeo7rRYP2jERfaGpD0hs2vE
NTU Chinese Medicine Clinic,4.5,103,"60 Nanyang Dr, Nanyang Technological University, School of Biological Sciences",Singapore,,SG,http://www.ntu.edu.sg/tcm,+65 6592 1733,Chinese medicine clinic,https://www.google.com/maps/search/?api=1&query=NTU%20Chinese%20Medicine%20Clinic&query_place_id=ChIJf0Z573QP2jERDjMyKPv0Zoo,ChIJf0Z573QP2jERDjMyKPv0Zoo
Fullerton Dental,4.0,46,"36 Nanyang Ave, #01-01/02",Singapore,,SG,,+65 6790 8331,Dental clinic,https://www.google.com/maps/search/?api=1&query=Fullerton%20Dental&query_place_id=ChIJkxwAAKQP2jER39VPax2HKCs,ChIJkxwAAKQP2jER39VPax2HKCs
Paik's Bibim,4.1,95,"50 Nanyang Dr, #01-15",Singapore,,SG,http://www.facebook.com/paiks.bibimsg/,+65 6262 0567,Korean restaurant,https://www.google.com/maps/search/?api=1&query=Paik's%20Bibim&query_place_id=ChIJlbaBdqAP2jERlLl3ZDlREHY,ChIJlbaBdqAP2jERlLl3ZDlREHY
Supersystems - Custom PC / Gaming PC / Office PC / Computer / Workstation / Computer Parts Shop/,5.0,520,1 Chencharu Link,Singapore,,SG,https://www.carousell.sg/supersystems/,+65 9321 7199,Computer store,https://www.google.com/maps/search/?api=1&query=Supersystems%20-%20Custom%20PC%20%2F%20Gaming%20PC%20%2F%20Office%20PC%20%2F%20Computer%20%2F%20Workstation%20%2F%20Computer%20Parts%20Shop%2F&query_place_id=ChIJN9GGc1oV2jERwxJFBEXHaJw,ChIJN9GGc1oV2jERwxJFBEXHaJw
SHINING PC,5.0,52,"21 Woodlands Cl, #08-05 Primz Bizhub",Singapore,,SG,http://www.goshiningpc.com/,+65 8422 0968,Computer store,https://www.google.com/maps/search/?api=1&query=SHINING%20PC&query_place_id=ChIJze1G83MT2jERbJ2PM7Cf2q4,ChIJze1G83MT2jERbJ2PM7Cf2q4
Computers for Moms,4.9,99,"7030 Ang Mo Kio Ave 5, Northstar@AMK",Singapore,,SG,https://computersformoms.sg/,+65 8463 5483,Computer store,https://www.google.com/maps/search/?api=1&query=Computers%20for%20Moms&query_place_id=ChIJbUnk2-kX2jERZq-Su5LcS8A,ChIJbUnk2-kX2jERZq-Su5LcS8A
Catech Customs,5.0,91,"3 Ang Mo Kio Street 62, #03-07 Link@AMK",Singapore,,SG,,+65 9446 6882,Computer store,https://www.google.com/maps/search/?api=1&query=Catech%20Customs&query_place_id=ChIJPdKIKBEX2jER6Rlp4SwMC94,ChIJPdKIKBEX2jER6Rlp4SwMC94
"Love, Bonito Waterway Point - Women's Fashion & Clothing",4.9,365,"83 Punggol Central, #01-55A",Singapore,,SG,https://www.lovebonito.com/sg/,,Women's clothing store,https://www.google.com/maps/search/?api=1&query=Love%2C%20Bonito%20Waterway%20Point%20-%20Women's%20Fashion%20%26%20Clothing&query_place_id=ChIJ0VSicRkV2jERSVW1TZjsRK8,ChIJ0VSicRkV2jERSVW1TZjsRK8
Cotton On,3.9,88,"930 Yishun Ave 2, #02-37/38",Singapore,,SG,https://cottonon.com/SG/store-finder/store-details/?StoreID=7016,+65 6257 4182,Clothing store,https://www.google.com/maps/search/?api=1&query=Cotton%20On&query_place_id=ChIJNQt1fWUU2jERaVo_RUbn41Y,ChIJNQt1fWUU2jERaVo_RUbn41Y
UNIQLO Causeway Point (Same Day Click & Collect),4.3,226,"1 Woodlands Square, #02-21/22/23/24 Causeway Point",Singapore,,SG,https://www.uniqlo.com/sg/en/,+65 6894 0137,Clothing store,https://www.google.com/maps/search/?api=1&query=UNIQLO%20Causeway%20Point%20(Same%20Day%20Click%20%26%20Collect)&query_place_id=ChIJJ3sAl6gT2jER4Of2LmrafRw,ChIJJ3sAl6gT2jER4Of2LmrafRw
UNIQLO Waterway Point (Same Day Click & Collect),4.4,699,"83 Punggol Central, #01 - 21 West Wing",Singapore,,SG,https://www.uniqlo.com/sg/en/,+65 6385 8246,Clothing store,https://www.google.com/maps/search/?api=1&query=UNIQLO%20Waterway%20Point%20(Same%20Day%20Click%20%26%20Collect)&query_place_id=ChIJ69_xpeQV2jERNgP5NxfpKnU,ChIJ69_xpeQV2jERNgP5NxfpKnU
GSK Fashion Style,4.9,161,"Chong Pang City, Yishun Ring Rd, #01-155 106",Singapore,,SG,http://www.gskfashionstyle.com/,+65 9379 6426,Clothing store,https://www.google.com/maps/search/?api=1&query=GSK%20Fashion%20Style&query_place_id=ChIJ5S0oz8AV2jERMFIYFME4U8c,ChIJ5S0oz8AV2jERMFIYFME4U8c
G2000,4.3,104,"1 Northpoint Drive, South Wing, #01-159/185-186 Northpoint City",Singapore,,SG,https://g2000.com.sg/,+65 6483 0889,Clothing store,https://www.google.com/maps/search/?api=1&query=G2000&query_place_id=ChIJcf8keW8U2jERbNSDnimQzaM,ChIJcf8keW8U2jERbNSDnimQzaM
Singapore Fashion Trading,4.8,68,"1 Yishun Industrial Street 1, #07-03, A Posh BizHub",Singapore,,SG,https://www.plussize.sg/,+65 8299 2602,Plus size clothing store,https://www.google.com/maps/search/?api=1&query=Singapore%20Fashion%20Trading&query_place_id=ChIJJwJOU2AU2jERCZasu0-qFPY,ChIJJwJOU2AU2jERCZasu0-qFPY
KidsHealth Paediatric Clinic,3.5,107,"235 Yishun Street 21, #01-462",Singapore,,SG,http://kidshealth.sg/,+65 6717 7733,Medical clinic,https://www.google.com/maps/search/?api=1&query=KidsHealth%20Paediatric%20Clinic&query_place_id=ChIJt_DAK2UU2jERYikwYmaS6wI,ChIJt_DAK2UU2jERYikwYmaS6wI
Outram Community Hospital (OCH),3.8,123,10 Hospital Blvd,Singapore,,SG,,+65 6970 3000,Community health center,https://www.google.com/maps/search/?api=1&query=Outram%20Community%20Hospital%20(OCH)&query_place_id=ChIJ6ZUqqW8Z2jERO0yVCwEfAPo,ChIJ6ZUqqW8Z2jERO0yVCwEfAPo
S Aesthetics Clinic,4.6,158,"1 Scotts Rd, #03-02",Singapore,,SG,https://saestheticsclinic.com/,+65 6690 3168,Skin care clinic,https://www.google.com/maps/search/?api=1&query=S%20Aesthetics%20Clinic&query_place_id=ChIJ69FJao0Z2jERWJhc-3KoRXU,ChIJ69FJao0Z2jERWJhc-3KoRXU
National Cancer Centre Singapore,3.6,135,30 Hospital Boulevard,Singapore,,SG,https://www.nccs.com.sg/,+65 6436 8000,Medical Center,https://www.google.com/maps/search/?api=1&query=National%20Cancer%20Centre%20Singapore&query_place_id=ChIJLQl1k5AZ2jERhIQGGiQQ1Bw,ChIJLQl1k5AZ2jERhIQGGiQQ1Bw
Anytime Fitness,4.6,103,"9 Tampines Street 32, #02-01 Tampines Mart",Singapore,,SG,https://www.anytimefitness.sg/gyms/sg-0025/singapore-south-east-529286/,+65 9017 3533,Gym,https://www.google.com/maps/search/?api=1&query=Anytime%20Fitness&query_place_id=ChIJt3FaVB092jERTrNzmlYINmo,ChIJt3FaVB092jERTrNzmlYINmo
Anytime Fitness Changi,4.8,92,"5 Changi Business Park Central 1, #02-01",Singapore,,SG,https://www.anytimefitness.sg/gyms/sg-0130/upper-changi-north-east-486038/,+65 8686 6181,Gym,https://www.google.com/maps/search/?api=1&query=Anytime%20Fitness%20Changi&query_place_id=ChIJvytALvc92jERoTouSnFv5Ws,ChIJvytALvc92jERoTouSnFv5Ws
Sembawang Shopping Centre,4.0,5252,604 Sembawang Rd,Singapore,,SG,http://www.sembawangsc.com.sg/,+65 6757 8000,Shopping mall,https://www.google.com/maps/search/?api=1&query=Sembawang%20Shopping%20Centre&query_place_id=ChIJ5-zrBoEU2jERhLnuZ0bgvUw,ChIJ5-zrBoEU2jERhLnuZ0bgvUw
Waterway Point,4.4,14576,83 Punggol Central,Singapore,,SG,http://www.waterwaypoint.com.sg/,+65 6812 7300,Shopping mall,https://www.google.com/maps/search/?api=1&query=Waterway%20Point&query_place_id=ChIJLTCPpuQV2jERYMYF_2uprDE,ChIJLTCPpuQV2jERYMYF_2uprDE
